STARLINK-2114           
1 47393U 21005AW  26063.50001156  .01084230  00000+0  10553-1 0  9991
2 47393  53.0464   9.3258 0001821  91.8404  76.0496 15.63222135  5956
STARLINK-2119           
1 47397U 21005BA  26063.50271043  .00003106  00000+0  22735-3 0  9998
2 47397  53.0545  84.9045 0001480  91.9732 268.1426 15.06399406282260
STARLINK-2121           
1 47399U 21005BC  26063.27310704  .00002797  00000+0  10652-3 0  9992
2 47399  53.1597  61.8641 0001303  85.6989 274.4160 15.30204327282566
STARLINK-2122           
1 47400U 21005BD  26063.19987561  .00005596  00000+0  20089-3 0  9992
2 47400  53.1607  39.0010 0001302  92.6803 267.4347 15.30203799282886
STARLINK-2123           
1 47401U 21005BE  26063.35802972 -.00000574  00000+0 -19627-4 0  9993
2 47401  53.0554  55.5527 0001287  84.8627 275.2509 15.06395145282665
STARLINK-2128           
1 47404U 21005BH  26063.49813661  .00112002  00000+0  14437-2 0  9998
2 47404  53.0538  41.3295 0003863  96.8936 263.2515 15.58180871282875
STARLINK-2130           
1 47405U 21005BJ  26063.36223296  .00055083  00000+0  36468-2 0  9997
2 47405  53.0567  85.5329 0001503 122.8478 237.2656 15.06816758282236
STARLINK-2134           
1 47407U 21005BL  26063.26587366  .00001466  00000+0  11730-3 0  9991
2 47407  53.0557  55.9675 0001471  91.8219 268.2938 15.06406964282640
STARLINK-2135           
1 47408U 21005BM  26063.23639558  .00000498  00000+0  52355-4 0  9993
2 47408  53.0561  56.0995 0001468  87.6069 272.5088 15.06397437282643
STARLINK-1954           
1 47555U 21009H   26063.29108112  .00089052  00000+0  29982-2 0  9994
2 47555  53.0572  35.3278 0004620  74.1315 286.0193 15.30025827280137
STARLINK-1955           
1 47556U 21009J   26063.50001156  .00500958  11000-3  14104-2 0  9998
2 47556  53.0354 351.6932 0003199 130.9799 163.6116 15.92975855  5924
STARLINK-1958           
1 47559U 21009M   26062.07028201  .00099103  00000+0  94623-3 0  9996
2 47559  53.0473 354.0576 0005765 331.9749  28.0954 15.65966142280602
STARLINK-1962           
1 47563U 21009R   26063.50001156  .00136968  00000+0  16268-2 0  9999
2 47563  53.0462  21.8817 0009275  57.3904  17.2859 15.60198189  5954
STARLINK-1964           
1 47565U 21009T   26063.09136757  .00133679  00000+0  12757-2 0  9996
2 47565  53.0469 356.7408 0004665 302.9429  57.1136 15.65844454280659
STARLINK-1965           
1 47566U 21009U   26063.50001156  .00273357  00000+0  14048-2 0  9990
2 47566  53.0153 308.6910 0009897 127.6459 128.6585 15.79864201  6005
STARLINK-1967           
1 47568U 21009W   26063.50001156  .00058925  00000+0  70113-3 0  9990
2 47568  53.0484  30.2545 0005693  45.4142 281.7272 15.60564474  5958
STARLINK-1971           
1 47572U 21009AA  26063.50001156  .00324288  00000+0  12971-2 0  9990
2 47572  53.0417 348.3307 0002050  27.2292 173.5395 15.85147855  6015
