[{"OBJECT_NAME":"STARLINK-2114","OBJECT_ID":"2021-005AW","EPOCH":"2026-03-04T12:00:00.998784","MEAN_MOTION":15.63222135,"ECCENTRICITY":0.0001821,"INCLINATION":53.0464,"RA_OF_ASC_NODE":9.3258,"ARG_OF_PERICENTER":91.8404,"MEAN_ANOMALY":76.0496,"EPHEMERIS_TYPE":0,"CLASSIFICATION_TYPE":"U","NORAD_CAT_ID":47393,"ELEMENT_SET_NO":999,"REV_AT_EPOCH":595,"BSTAR":0.010553,"MEAN_MOTION_DOT":0.0108423,"MEAN_MOTION_DDOT":0},{"OBJECT_NAME":"STARLINK-2119","OBJECT_ID":"2021-005BA","EPOCH":"2026-03-04T12:03:54.181152","MEAN_MOTION":15.06399406,"ECCENTRICITY":0.000148,"INCLINATION":53.0545,"RA_OF_ASC_NODE":84.9045,"ARG_OF_PERICENTER":91.9732,"MEAN_ANOMALY":268.1426,"EPHEMERIS_TYPE":0,"CLASSIFICATION_TYPE":"U","NORAD_CAT_ID":47397,"ELEMENT_SET_NO":999,"REV_AT_EPOCH":28226,"BSTAR":0.00022735,"MEAN_MOTION_DOT":3.106e-5,"MEAN_MOTION_DDOT":0},{"OBJECT_NAME":"STARLINK-2121","OBJECT_ID":"2021-005BC","EPOCH":"2026-03-04T06:33:16.448256","MEAN_MOTION":15.30204327,"ECCENTRICITY":0.0001303,"INCLINATION":53.1597,"RA_OF_ASC_NODE":61.8641,"ARG_OF_PERICENTER":85.6989,"MEAN_ANOMALY":274.416,"EPHEMERIS_TYPE":0,"CLASSIFICATION_TYPE":"U","NORAD_CAT_ID":47399,"ELEMENT_SET_NO":999,"REV_AT_EPOCH":28256,"BSTAR":0.00010652,"MEAN_MOTION_DOT":2.797e-5,"MEAN_MOTION_DDOT":0},{"OBJECT_NAME":"STARLINK-2122","OBJECT_ID":"2021-005BD","EPOCH":"2026-03-04T04:47:49.252704","MEAN_MOTION":15.30203799,"ECCENTRICITY":0.0001302,"INCLINATION":53.1607,"RA_OF_ASC_NODE":39.001,"ARG_OF_PERICENTER":92.6803,"MEAN_ANOMALY":267.4347,"EPHEMERIS_TYPE":0,"CLASSIFICATION_TYPE":"U","NORAD_CAT_ID":47400,"ELEMENT_SET_NO":999,"REV_AT_EPOCH":28288,"BSTAR":0.00020089,"MEAN_MOTION_DOT":5.596e-5,"MEAN_MOTION_DDOT":0},{"OBJECT_NAME":"STARLINK-2123","OBJECT_ID":"2021-005BE","EPOCH":"2026-03-04T08:35:33.767808","MEAN_MOTION":15.06395145,"ECCENTRICITY":0.0001287,"INCLINATION":53.0554,"RA_OF_ASC_NODE":55.5527,"ARG_OF_PERICENTER":84.8627,"MEAN_ANOMALY":275.2509,"EPHEMERIS_TYPE":0,"CLASSIFICATION_TYPE":"U","NORAD_CAT_ID":47401,"ELEMENT_SET_NO":999,"REV_AT_EPOCH":28266,"BSTAR":-1.9627e-5,"MEAN_MOTION_DOT":-5.74e-6,"MEAN_MOTION_DDOT":0},{"OBJECT_NAME":"STARLINK-2128","OBJECT_ID":"2021-005BH","EPOCH":"2026-03-04T11:57:19.003104","MEAN_MOTION":15.58180871,"ECCENTRICITY":0.0003863,"INCLINATION":53.0538,"RA_OF_ASC_NODE":41.3295,"ARG_OF_PERICENTER":96.8936,"MEAN_ANOMALY":263.2515,"EPHEMERIS_TYPE":0,"CLASSIFICATION_TYPE":"U","NORAD_CAT_ID":47404,"ELEMENT_SET_NO":999,"REV_AT_EPOCH":28287,"BSTAR":0.0014437,"MEAN_MOTION_DOT":0.00112002,"MEAN_MOTION_DDOT":0},{"OBJECT_NAME":"STARLINK-2130","OBJECT_ID":"2021-005BJ","EPOCH":"2026-03-04T08:41:36.927744","MEAN_MOTION":15.06816758,"ECCENTRICITY":0.0001503,"INCLINATION":53.0567,"RA_OF_ASC_NODE":85.5329,"ARG_OF_PERICENTER":122.8478,"MEAN_ANOMALY":237.2656,"EPHEMERIS_TYPE":0,"CLASSIFICATION_TYPE":"U","NORAD_CAT_ID":47405,"ELEMENT_SET_NO":999,"REV_AT_EPOCH":28223,"BSTAR":0.0036468,"MEAN_MOTION_DOT":0.00055083,"MEAN_MOTION_DDOT":0},{"OBJECT_NAME":"STARLINK-2134","OBJECT_ID":"2021-005BL","EPOCH":"2026-03-04T06:22:51.484224","MEAN_MOTION":15.06406964,"ECCENTRICITY":0.0001471,"INCLINATION":53.0557,"RA_OF_ASC_NODE":55.9675,"ARG_OF_PERICENTER":91.8219,"MEAN_ANOMALY":268.2938,"EPHEMERIS_TYPE":0,"CLASSIFICATION_TYPE":"U","NORAD_CAT_ID":47407,"ELEMENT_SET_NO":999,"REV_AT_EPOCH":28264,"BSTAR":0.0001173,"MEAN_MOTION_DOT":1.466e-5,"MEAN_MOTION_DDOT":0},{"OBJECT_NAME":"STARLINK-2135","OBJECT_ID":"2021-005BM","EPOCH":"2026-03-04T05:40:24.578112","MEAN_MOTION":15.06397437,"ECCENTRICITY":0.0001468,"INCLINATION":53.0561,"RA_OF_ASC_NODE":56.0995,"ARG_OF_PERICENTER":87.6069,"MEAN_ANOMALY":272.5088,"EPHEMERIS_TYPE":0,"CLASSIFICATION_TYPE":"U","NORAD_CAT_ID":47408,"ELEMENT_SET_NO":999,"REV_AT_EPOCH":28264,"BSTAR":5.2355e-5,"MEAN_MOTION_DOT":4.98e-6,"MEAN_MOTION_DDOT":0},{"OBJECT_NAME":"STARLINK-1954","OBJECT_ID":"2021-009H","EPOCH":"2026-03-04T06:59:09.408768","MEAN_MOTION":15.30025827,"ECCENTRICITY":0.000462,"INCLINATION":53.0572,"RA_OF_ASC_NODE":35.3278,"ARG_OF_PERICENTER":74.1315,"MEAN_ANOMALY":286.0193,"EPHEMERIS_TYPE":0,"CLASSIFICATION_TYPE":"U","NORAD_CAT_ID":47555,"ELEMENT_SET_NO":999,"REV_AT_EPOCH":28013,"BSTAR":0.0029982,"MEAN_MOTION_DOT":0.00089052,"MEAN_MOTION_DDOT":0},{"OBJECT_NAME":"STARLINK-1955","OBJECT_ID":"2021-009J","EPOCH":"2026-03-04T12:00:00.998784","MEAN_MOTION":15.92975855,"ECCENTRICITY":0.0003199,"INCLINATION":53.0354,"RA_OF_ASC_NODE":351.6932,"ARG_OF_PERICENTER":130.9799,"MEAN_ANOMALY":163.6116,"EPHEMERIS_TYPE":0,"CLASSIFICATION_TYPE":"U","NORAD_CAT_ID":47556,"ELEMENT_SET_NO":999,"REV_AT_EPOCH":592,"BSTAR":0.0014104,"MEAN_MOTION_DOT":0.00500958,"MEAN_MOTION_DDOT":0.00011},{"OBJECT_NAME":"STARLINK-1958","OBJECT_ID":"2021-009M","EPOCH":"2026-03-03T01:41:12.365664","MEAN_MOTION":15.65966142,"ECCENTRICITY":0.00057652,"INCLINATION":53.0473,"RA_OF_ASC_NODE":354.0576,"ARG_OF_PERICENTER":331.9749,"MEAN_ANOMALY":28.0954,"EPHEMERIS_TYPE":0,"CLASSIFICATION_TYPE":"U","NORAD_CAT_ID":47559,"ELEMENT_SET_NO":999,"REV_AT_EPOCH":28060,"BSTAR":0.00094623307,"MEAN_MOTION_DOT":0.00099103,"MEAN_MOTION_DDOT":0},{"OBJECT_NAME":"STARLINK-1962","OBJECT_ID":"2021-009R","EPOCH":"2026-03-04T12:00:00.998784","MEAN_MOTION":15.60198189,"ECCENTRICITY":0.0009275,"INCLINATION":53.0462,"RA_OF_ASC_NODE":21.8817,"ARG_OF_PERICENTER":57.3904,"MEAN_ANOMALY":17.2859,"EPHEMERIS_TYPE":0,"CLASSIFICATION_TYPE":"U","NORAD_CAT_ID":47563,"ELEMENT_SET_NO":999,"REV_AT_EPOCH":595,"BSTAR":0.0016268,"MEAN_MOTION_DOT":0.00136968,"MEAN_MOTION_DDOT":0},{"OBJECT_NAME":"STARLINK-1964","OBJECT_ID":"2021-009T","EPOCH":"2026-03-04T02:11:34.158048","MEAN_MOTION":15.65844454,"ECCENTRICITY":0.0004665,"INCLINATION":53.0469,"RA_OF_ASC_NODE":356.7408,"ARG_OF_PERICENTER":302.9429,"MEAN_ANOMALY":57.1136,"EPHEMERIS_TYPE":0,"CLASSIFICATION_TYPE":"U","NORAD_CAT_ID":47565,"ELEMENT_SET_NO":999,"REV_AT_EPOCH":28065,"BSTAR":0.0012757,"MEAN_MOTION_DOT":0.00133679,"MEAN_MOTION_DDOT":0},{"OBJECT_NAME":"STARLINK-1965","OBJECT_ID":"2021-009U","EPOCH":"2026-03-04T12:00:00.998784","MEAN_MOTION":15.79864201,"ECCENTRICITY":0.0009897,"INCLINATION":53.0153,"RA_OF_ASC_NODE":308.691,"ARG_OF_PERICENTER":127.6459,"MEAN_ANOMALY":128.6585,"EPHEMERIS_TYPE":0,"CLASSIFICATION_TYPE":"U","NORAD_CAT_ID":47566,"ELEMENT_SET_NO":999,"REV_AT_EPOCH":600,"BSTAR":0.0014048,"MEAN_MOTION_DOT":0.00273357,"MEAN_MOTION_DDOT":0},{"OBJECT_NAME":"STARLINK-1967","OBJECT_ID":"2021-009W","EPOCH":"2026-03-04T12:00:00.998784","MEAN_MOTION":15.60564474,"ECCENTRICITY":0.0005693,"INCLINATION":53.0484,"RA_OF_ASC_NODE":30.2545,"ARG_OF_PERICENTER":45.4142,"MEAN_ANOMALY":281.7272,"EPHEMERIS_TYPE":0,"CLASSIFICATION_TYPE":"U","NORAD_CAT_ID":47568,"ELEMENT_SET_NO":999,"REV_AT_EPOCH":595,"BSTAR":0.00070113,"MEAN_MOTION_DOT":0.00058925,"MEAN_MOTION_DDOT":0},{"OBJECT_NAME":"STARLINK-1971","OBJECT_ID":"2021-009AA","EPOCH":"2026-03-04T12:00:00.998784","MEAN_MOTION":15.85147855,"ECCENTRICITY":0.000205,"INCLINATION":53.0417,"RA_OF_ASC_NODE":348.3307,"ARG_OF_PERICENTER":27.2292,"MEAN_ANOMALY":173.5395,"EPHEMERIS_TYPE":0,"CLASSIFICATION_TYPE":"U","NORAD_CAT_ID":47572,"ELEMENT_SET_NO":999,"REV_AT_EPOCH":601,"BSTAR":0.0012971,"MEAN_MOTION_DOT":0.00324288,"MEAN_MOTION_DDOT":0}]
